MOLNIYA 2-9             
1 07276U 74026A   22090.47343727  .00000006  00000+0  00000+0 0  9995
2 07276  64.2672 238.1723 6520135 282.3252  16.1784  2.45095798247305
MOLNIYA 2-10            
1 07376U 74056A   22089.85232910 -.00000010  00000+0  00000+0 0  9996
2 07376  63.9863 102.9013 6706830 287.4236  13.4525  2.01065364348774
MOLNIYA 1-S             
1 07392U 74060A   22091.43660400 -.00000328  00000+0  00000+0 0  9997
2 07392   5.3106 284.1467 0010322 200.1510 324.0923  1.00230105118754
MOLNIYA 1-29            
1 07780U 75036A   22091.42372460  .00000220  00000+0 -24963-2 0  9995
2 07780  63.3801 224.0014 6973417 289.2397  11.2993  2.00613144344079
MOLNIYA 2-14            
1 08195U 75081A   22090.49130738  .00001273  00000+0  00000+0 0  9993
2 08195  63.3699 196.4779 6864019 293.4835  10.9660  2.02071766341317
MOLNIYA 1-32            
1 08601U 76006A   22086.52525069 -.00001502  00000+0  14367-2 0  9997
2 08601  63.3995 309.2663 7311149 283.5192  10.7772  2.00028828 51029
MOLNIYA 1-36            
1 09880U 77021A   22086.68554662  .00001557  00000+0  13124-1 0  9991
2 09880  63.3048 279.8340 7256114 289.5200   9.6731  2.00535846227725
MOLNIYA 3-8             
1 10455U 77105A   22090.88642889  .00001442  00000+0  18328-2 0  9995
2 10455  63.1564   9.9720 7392172 281.8079  10.8085  2.00575252325588
MOLNIYA 1-40            
1 10925U 78055A   22090.96881825  .00000364  00000+0  00000+0 0  9993
2 10925  63.1027  59.2947 7242436 280.3610  12.0515  2.00521382321128
MOLNIYA 3-10            
1 11057U 78095A   22091.24475570  .00000214  00000+0  81531-3 0  9998
2 11057  63.0189  67.8896 5805335 309.4357  12.0541  4.09848521380563
MOLNIYA 3-13            
1 11896U 80063A   22091.21120022  .00000462  00000+0  00000+0 0  9996
2 11896  62.6367 147.2503 7064761 276.1780  14.3953  2.00575041305547
MOLNIYA 1-49            
1 12156U 81009A   22087.01594900  .00001244  00000+0 -21993-3 0  9998
2 12156  61.7082 177.8448 7219799 261.0570  18.5379  2.05693471219816
MOLNIYA 1-52            
1 13012U 81123A   22090.01604185 -.00001327  00000+0  17036-2 0  9992
2 13012  62.0640 290.6549 7272182 253.5964  21.3598  2.00749262295001
MOLNIYA 1-53            
1 13070U 82015A   22090.99231375  .00001361  00000+0  32870-1 0  9990
2 13070  62.6100 224.0362 7105188 282.4854  12.2314  2.00782402293709
MOLNIYA 3-20            
1 13875U 83015A   22090.72053806 -.00001411  00000+0  83162-3 0  9995
2 13875  62.9351   5.1329 7398131 257.4227  18.3797  2.00550149222156
MOLNIYA 1-56            
1 13890U 83019A   22090.14645220 -.00000631  00000+0  81328-3 0  9994
2 13890  63.0569  30.7601 7432168 263.4469  15.7605  1.99969070285036
MOLNIYA 1-62            
1 15214U 84089A   22090.07245437  .00012758 -66882-6  28416-3 0  9991
2 15214  62.8489  30.1009 7533308 270.6421  12.6763  2.01197126242716
MOLNIYA 1-63            
1 15429U 84124A   22087.41272059  .00001235  00000+0  00000+0 0  9998
2 15429  63.6742 175.4613 6588179 260.4713  37.0375  2.00481213273137
MOLNIYA 3-24            
1 15738U 85040A   22091.09618797  .00000028  00000+0  00000+0 0  9990
2 15738  63.7306  96.9577 6762091 247.5349  31.1578  2.55628870301898
MOLNIYA 3-27            
1 16393U 85117A   22090.54242080  .00000044  00000+0  00000+0 0  9998
2 16393  64.4781  91.5209 6925112 249.2217  28.0116  2.12398571272527
MOLNIYA 1-69            
1 17078U 86089A   22091.18678313 -.00000901  00000+0  00000+0 0  9994
2 17078  64.0308 193.8869 6612607 259.1506  25.4480  2.00840799259273
MOLNIYA 3-31            
1 17328U 87008A   22090.66435970 -.00000032  00000+0  00000+0 0  9991
2 17328  63.7240 137.7835 6959726 254.5082  24.3605  2.00552806254301
MOLNIYA 1-71            
1 18946U 88017A   22090.67635516  .00000419  00000+0  00000+0 0  9996
2 18946  63.4491 133.1265 7075829 256.7984  21.9178  2.00637368249498
MOLNIYA 1-75            
1 19807U 89014A   22089.82563246  .00000370  00000+0  00000+0 0  9992
2 19807  64.1269 293.4667 6908867 267.5699  18.5450  2.00527086242427
MOLNIYA 1-80            
1 21118U 91012A   22088.72052656 -.00000995  00000+0  00000+0 0  9991
2 21118  65.1623 341.7267 6825549 278.7444  15.3723  2.05248199229344
MOLNIYA 3-40            
1 21196U 91022A   22090.99817530  .00000130  00000+0  00000+0 0  9990
2 21196  65.1172 335.0005 6856962 275.4427  16.1753  2.02991523228112
MOLNIYA 1-81            
1 21426U 91043A   22090.77496422 -.00000035  00000+0  00000+0 0  9993
2 21426  64.1734 353.9852 7113325 267.5686  16.9364  2.00607367225604
MOLNIYA 3-41            
1 21706U 91065A   22090.59774652  .00000073  00000+0  00000+0 0  9993
2 21706  64.1063 174.3745 6781264 256.8387  24.9730  2.04345584225270
MOLNIYA 3-42            
1 22178U 92067A   22088.50120091  .00000098  00000+0  00000+0 0  9997
2 22178  64.6781 224.4100 6456034 268.4218  22.2238  2.20434199222757
MOLNIYA 1-86            
1 22671U 93035A   22091.57084324  .00000115  00000+0  21296-3 0  9994
2 22671  63.1196 281.5555 4839466   5.8274 358.2417  5.62654214347978
MOLNIYA 1-87            
1 22949U 93079A   22087.22007118  .00001187  00000+0  00000+0 0  9999
2 22949  63.8060 101.4690 6842621 284.9816  13.2954  2.02863665 73281
MOLNIYA 1-88            
1 23420U 94081A   22091.36392533  .00000039  00000+0  00000+0 0  9991
2 23420  64.2757 212.7634 5832945 284.5112  20.3806  3.34496237111124
MOLNIYA 3-47            
1 23642U 95042A   22091.02664218 -.00000315  00000+0  00000+0 0  9998
2 23642  63.8894  83.1776 6899266 285.1342  12.9065  2.01984104195456
MOLNIYA 1-90            
1 24960U 97054A   22091.21691597  .00000127  00000+0  53503-2 0  9997
2 24960  63.6255 180.2104 6148183 299.3008  13.3303  3.18688883205540
MOLNIYA 1-91            
1 25485U 98054A   22091.47612186  .00000176  00000+0  22925-2 0  9994
2 25485  62.9833 162.1354 6794365 291.8904  41.2631  2.36445016176565
MOLNIYA 3-50            
1 25847U 99036A   22089.75537887  .00000026  00000+0  12083-3 0  9998
2 25847  63.0828 346.7605 7418393 281.4656  10.6901  2.00595075166534